[{"OBJECT_NAME":"STARLINK-3210","OBJECT_ID":"2021-115AH","EPOCH":"2026-03-09T12:52:13.484352","MEAN_MOTION":15.08824357,"ECCENTRICITY":0.00012881,"INCLINATION":53.2171,"RA_OF_ASC_NODE":149.855,"ARG_OF_PERICENTER":89.9257,"MEAN_ANOMALY":270.1883,"EPHEMERIS_TYPE":0,"CLASSIFICATION_TYPE":"U","NORAD_CAT_ID":49755,"ELEMENT_SET_NO":999,"REV_AT_EPOCH":23551,"BSTAR":-0.0001427929,"MEAN_MOTION_DOT":-2.559e-5,"MEAN_MOTION_DDOT":0},{"OBJECT_NAME":"FENGYUN 1C DEB","OBJECT_ID":"1999-025AVL","EPOCH":"2026-03-06T12:53:29.086080","MEAN_MOTION":14.83381217,"ECCENTRICITY":0.01434433,"INCLINATION":98.8652,"RA_OF_ASC_NODE":274.6705,"ARG_OF_PERICENTER":90.518,"MEAN_ANOMALY":301.133,"EPHEMERIS_TYPE":0,"CLASSIFICATION_TYPE":"U","NORAD_CAT_ID":30826,"ELEMENT_SET_NO":999,"REV_AT_EPOCH":1528,"BSTAR":0.00060190522,"MEAN_MOTION_DOT":5.85e-5,"MEAN_MOTION_DDOT":0}]
